SatCatId,ObjectName,LaunchYear,OrbitalPeriod,LaunchMass,StatusCode,Inclination,Status,UcsData,OrbitClassEstimated,LaunchSiteCountry,Owner,UseType,Purpose,LaunchVehicleClass,TLE1,TLE2,MeanMotion,Eccentricity,OrbitClass
45675,STARLINK-1458,2020,95.59,227.0,+,53.05,Active,1,LEO,USA,USA,Commercial,Communications,Falcon,1 45675U 20035U   23364.18897920  .00000855  00000+0  76271-4 0  9993,2 45675  53.0533  60.2095 0001723  76.0917 284.0264 15.06395303197663,15.06395303,0.0001723,LEO
45676,STARLINK-1460,2020,95.59,227.0,+,53.05,Active,1,LEO,USA,USA,Commercial,Communications,Falcon,1 45676U 20035V   23364.15948711  .00002969  00000+0  21811-3 0  9993,2 45676  53.0553  60.3423 0001824  97.7969 262.3227 15.06399391197660,15.06399391,0.0001824,LEO
45677,STARLINK-1392,2020,95.59,227.0,+,53.05,Active,1,LEO,USA,USA,Commercial,Communications,Falcon,1 45677U 20035W   23364.17054354  .00004797  00000+0  34068-3 0  9996,2 45677  53.0544  60.2887 0001447  95.8437 264.2717 15.06403508197665,15.06403508,0.0001447,LEO
45678,STARLINK-1393,2020,95.59,227.0,+,53.05,Active,1,LEO,USA,USA,Commercial,Communications,Falcon,1 45678U 20035X   23364.16409983  .00000355  00000+0  42724-4 0  9993,2 45678  53.0539  50.3151 0001442 102.6421 257.4729 15.06391233197803,15.06391233,0.0001442,LEO
45679,STARLINK-1394,2020,95.59,227.0,+,53.06,Active,1,LEO,USA,USA,Commercial,Communications,Falcon,1 45679U 20035Y   23364.16778497 -.00000891  00000+0 -40944-4 0  9992,2 45679  53.0573  50.3099 0001734  98.0620 262.0565 15.06395700197810,15.063957,0.0001734,LEO
45680,STARLINK-1395,2020,95.59,227.0,+,53.05,Active,1,LEO,USA,USA,Commercial,Communications,Falcon,1 45680U 20035Z   23364.17515593  .00000656  00000+0  62916-4 0  9991,2 45680  53.0534  50.2677 0001446  80.5983 279.5169 15.06396156197806,15.06396156,0.0001446,LEO
45681,STARLINK-1396,2020,94.87,227.0,P,53.05,Active,1,LEO,USA,USA,Commercial,Communications,Falcon,1 45681U 20035AA  23363.97611181  .00021500  00000+0  10590-2 0  9999,2 45681  53.0474  43.4798 0001837  38.5349 321.5776 15.17926914197884,15.17926914,0.0001837,LEO
45682,STARLINK-1397,2020,95.59,227.0,+,53.05,Active,1,LEO,USA,USA,Commercial,Communications,Falcon,1 45682U 20035AB  23363.38267168  .00004968  00000+0  35207-3 0  9999,2 45682  53.0545  53.8259 0001554  95.1798 264.9368 15.06410277198082,15.06410277,0.0001554,LEO
45683,STARLINK-1399,2020,95.59,227.0,+,53.06,Active,1,LEO,USA,USA,Commercial,Communications,Falcon,1 45683U 20035AC  23364.16040335 -.00002791  00000+0 -16844-3 0  9992,2 45683  53.0564  50.3366 0003833 161.6809 198.4319 15.06400323197806,15.06400323,0.0003833,LEO
45684,STARLINK-1401,2020,94.65,227.0,P,53.05,Active,1,LEO,USA,USA,Commercial,Communications,Falcon,1 45684U 20035AD  23363.42398001  .00007598  00000+0  34863-3 0  9996,2 45684  53.0481  37.7761 0003321 199.4747 160.6122 15.21381797198337,15.21381797,0.0003321,LEO
45685,STARLINK-1402,2020,95.59,227.0,+,53.05,Active,1,LEO,USA,USA,Commercial,Communications,Falcon,1 45685U 20035AE  23363.99951938  .00002879  00000+0  21208-3 0  9999,2 45685  53.0532  45.4854 0001656  84.7104 275.4074 15.06403684197867,15.06403684,0.0001656,LEO
45686,STARLINK-1404,2020,95.59,227.0,+,53.05,Active,1,LEO,USA,USA,Commercial,Communications,Falcon,1 45686U 20035AF  23364.12724126  .00003130  00000+0  22896-3 0  9998,2 45686  53.0559  50.4911 0001660  68.9277 291.1889 15.06392127197809,15.06392127,0.000166,LEO
45688,STARLINK-1408,2020,94.29,227.0,P,53.08,Active,1,LEO,USA,USA,Commercial,Communications,Falcon,1 45688U 20035AH  23363.95713546  .00011371  00000+0  43169-3 0  9996,2 45688  53.0850  10.3692 0006872  87.4332 272.7453 15.27296998198359,15.27296998,0.0006872,LEO
45689,STARLINK-1413,2020,95.59,227.0,+,53.05,Active,1,LEO,USA,USA,Commercial,Communications,Falcon,1 45689U 20035AJ  23364.14566522  .00006391  00000+0  44784-3 0  9999,2 45689  53.0529  50.4004 0001606  76.0532 284.0635 15.06378581197804,15.06378581,0.0001606,LEO
45690,STARLINK-1414,2020,95.59,227.0,+,53.05,Active,1,LEO,USA,USA,Commercial,Communications,Falcon,1 45690U 20035AK  23364.17149400  .00000868  00000+0  77128-4 0  9998,2 45690  53.0551  50.5037 0001188  79.3731 280.7392 15.06401287197746,15.06401287,0.0001188,LEO
45691,STARLINK-1415,2020,95.59,227.0,+,53.05,Active,1,LEO,USA,USA,Commercial,Communications,Falcon,1 45691U 20035AL  23364.13092484  .00003297  00000+0  24011-3 0  9995,2 45691  53.0551  50.4711 0001470  71.9378 288.1771 15.06401784198212,15.06401784,0.000147,LEO
45692,STARLINK-1416,2020,95.59,227.0,+,53.05,Active,1,LEO,USA,USA,Commercial,Communications,Falcon,1 45692U 20035AM  23364.12355605  .00004416  00000+0  31526-3 0  9995,2 45692  53.0554  50.5043 0001674  68.8782 291.2386 15.06393201197800,15.06393201,0.0001674,LEO
45693,STARLINK-1417,2020,95.59,227.0,+,53.05,Active,1,LEO,USA,USA,Commercial,Communications,Falcon,1 45693U 20035AN  23363.41216124  .00002637  00000+0  19580-3 0  9998,2 45693  53.0550  53.6872 0001506  69.6684 290.4466 15.06413748198096,15.06413748,0.0001506,LEO
45695,STARLINK-1420,2020,95.59,227.0,+,53.05,Active,1,LEO,USA,USA,Commercial,Communications,Falcon,1 45695U 20035AQ  23363.41306011  .00002926  00000+0  21520-3 0  9993,2 45695  53.0550  33.6769 0001505  91.3551 268.7611 15.06407927198389,15.06407927,0.0001505,LEO
45696,STARLINK-1422,2020,95.59,227.0,+,53.05,Active,1,LEO,USA,USA,Commercial,Communications,Falcon,1 45696U 20035AR  23364.15303830 -.00003179  00000+0 -19474-3 0  9990,2 45696  53.0547  50.3650 0000591  55.9957 304.1088 15.06388060197806,15.0638806,5.91e-05,LEO
45697,STARLINK-1351,2020,95.59,227.0,+,53.05,Active,1,LEO,USA,USA,Commercial,Communications,Falcon,1 45697U 20035AS  23363.46558651 -.00010068  00000+0 -65811-3 0  9998,2 45697  53.0538  33.4503 0001431 112.0598 248.0543 15.06392568198391,15.06392568,0.0001431,LEO
45698,STARLINK-1370,2020,95.59,227.0,+,53.06,Active,1,LEO,USA,USA,Commercial,Communications,Falcon,1 45698U 20035AT  23364.05072652  .00000829  00000+0  74533-4 0  9991,2 45698  53.0555  30.8191 0001641 119.4369 240.6784 15.06401125198086,15.06401125,0.0001641,LEO
45699,STARLINK-1398,2020,95.59,227.0,+,53.05,Active,1,LEO,USA,USA,Commercial,Communications,Falcon,1 45699U 20035AU  23363.97426678  .00002158  00000+0  16373-3 0  9997,2 45699  53.0537  31.1634 0002152 132.0244 228.0928 15.06404132198108,15.06404132,0.0002152,LEO
45700,STARLINK-1400,2020,95.59,227.0,+,53.05,Active,1,LEO,USA,USA,Commercial,Communications,Falcon,1 45700U 20035AV  23363.37346136  .00006840  00000+0  47747-3 0  9995,2 45700  53.0546  33.8645 0001514  81.0786 279.0374 15.06411820198379,15.0641182,0.0001514,LEO
45701,STARLINK-1403,2020,95.59,227.0,+,53.06,Active,1,LEO,USA,USA,Commercial,Communications,Falcon,1 45701U 20035AW  23364.06641955  .00002605  00000+0  19372-3 0  9998,2 45701  53.0549  30.7605 0001438  97.3922 262.7231 15.06398872198071,15.06398872,0.0001438,LEO
45702,STARLINK-1405,2020,95.59,227.0,+,53.05,Active,1,LEO,USA,USA,Commercial,Communications,Falcon,1 45702U 20035AX  23364.04799090  .00001090  00000+0  92045-4 0  9997,2 45702  53.0546  30.8410 0001576  89.9419 270.1750 15.06393976198467,15.06393976,0.0001576,LEO
45703,STARLINK-1407,2020,95.59,227.0,+,53.06,Active,1,LEO,USA,USA,Commercial,Communications,Falcon,1 45703U 20035AY  23363.51352258  .00003790  00000+0  27314-3 0  9995,2 45703  53.0553  33.2399 0001628  97.0024 263.1150 15.06409271198393,15.06409271,0.0001628,LEO
45704,STARLINK-1409,2020,95.59,227.0,+,53.06,Active,1,LEO,USA,USA,Commercial,Communications,Falcon,1 45704U 20035AZ  23363.93738341  .00000338  00000+0  41565-4 0  9993,2 45704  53.0555  61.3383 0001328 121.0296 239.0824 15.06397272197630,15.06397272,0.0001328,LEO
45705,STARLINK-1410,2020,90.83,227.0,P,53.05,Active,1,LEO,USA,USA,Commercial,Communications,Falcon,1 45705U 20035BA  23363.91667824  .00211317  00000+0  84421-3 0  9997,2 45705  53.0468  33.0160 0008301  46.3227 316.8408 15.85424536198021,15.85424536,0.0008301,LEO
45706,STARLINK-1411,2020,95.59,227.0,+,53.06,Active,1,LEO,USA,USA,Commercial,Communications,Falcon,1 45706U 20035BB  23363.95583635  .00002276  00000+0  17162-3 0  9999,2 45706  53.0543  31.2515 0001413  88.5116 271.6035 15.06404273198058,15.06404273,0.0001413,LEO
45707,STARLINK-1412,2020,95.59,227.0,+,53.05,Active,1,LEO,USA,USA,Commercial,Communications,Falcon,1 45707U 20035BC  23363.35503438  .00017578  00000+0  11952-2 0  9998,2 45707  53.0540  33.9481 0001653  77.6211 282.4963 15.06426029197960,15.06426029,0.0001653,LEO
45708,STARLINK-1418,2020,95.59,227.0,+,53.06,Active,1,LEO,USA,USA,Commercial,Communications,Falcon,1 45708U 20035BD  23363.92635455  .00003185  00000+0  23261-3 0  9993,2 45708  53.0555  31.3905 0001539  81.9984 278.1179 15.06402458198050,15.06402458,0.0001539,LEO
45709,STARLINK-1421,2020,95.59,227.0,+,53.05,Active,1,LEO,USA,USA,Commercial,Communications,Falcon,1 45709U 20035BE  23364.09591074  .00003109  00000+0  22750-3 0  9999,2 45709  53.0556  30.6208 0001586  90.4973 269.6198 15.06401840198077,15.0640184,0.0001586,LEO
45710,STARLINK-1423,2020,95.59,227.0,+,53.05,Active,1,LEO,USA,USA,Commercial,Communications,Falcon,1 45710U 20035BF  23363.36239896  .00009057  00000+0  62608-3 0  9995,2 45710  53.0540  33.9163 0000969  83.7007 276.4093 15.06401669198377,15.06401669,9.69e-05,LEO
45711,STARLINK-1433,2020,95.59,227.0,+,53.06,Active,1,LEO,USA,USA,Commercial,Communications,Falcon,1 45711U 20035BG  23363.47666483  .00002543  00000+0  18951-3 0  9999,2 45711  53.0551  33.4010 0001473  87.4323 272.6835 15.06406030198389,15.0640603,0.0001473,LEO
45712,STARLINK-1434,2020,95.59,227.0,+,53.05,Active,1,LEO,USA,USA,Commercial,Communications,Falcon,1 45712U 20035BH  23363.93741022  .00004887  00000+0  34664-3 0  9996,2 45712  53.0530  31.3334 0001634 106.3310 253.7859 15.06410007198058,15.06410007,0.0001634,LEO
